CAPELLA-11 (ACADIA-1)   
1 57693U 23126A   26068.95756326  .00003323  00000+0  45922-3 0  9994
2 57693  53.0065 254.0280 0002745 128.8100 231.3123 14.80465178137415
KUIPER-00097            
1 65136U 25171E   26068.47211545  .00005673  00000+0  77247-3 0  9998
2 65136  51.9006 161.6726 0000475  76.0557 284.0458 14.79937818 32811
