[{"OBJECT_NAME":"CAPELLA-11 (ACADIA-1)","OBJECT_ID":"2023-126A","EPOCH":"2026-03-09T22:58:53.466528","MEAN_MOTION":14.80465178,"ECCENTRICITY":0.00027448,"INCLINATION":53.0065,"RA_OF_ASC_NODE":254.028,"ARG_OF_PERICENTER":128.81,"MEAN_ANOMALY":231.3123,"EPHEMERIS_TYPE":0,"CLASSIFICATION_TYPE":"U","NORAD_CAT_ID":57693,"ELEMENT_SET_NO":999,"REV_AT_EPOCH":13741,"BSTAR":0.00045921868,"MEAN_MOTION_DOT":3.323e-5,"MEAN_MOTION_DDOT":0},{"OBJECT_NAME":"KUIPER-00097","OBJECT_ID":"2025-171E","EPOCH":"2026-03-09T11:19:50.774880","MEAN_MOTION":14.79937818,"ECCENTRICITY":4.755e-5,"INCLINATION":51.9006,"RA_OF_ASC_NODE":161.6726,"ARG_OF_PERICENTER":76.0557,"MEAN_ANOMALY":284.0458,"EPHEMERIS_TYPE":0,"CLASSIFICATION_TYPE":"U","NORAD_CAT_ID":65136,"ELEMENT_SET_NO":999,"REV_AT_EPOCH":3281,"BSTAR":0.00077246704,"MEAN_MOTION_DOT":5.673e-5,"MEAN_MOTION_DDOT":0}]
